[
  {
    "name": "אנדורה",
    "english_name": "Andorra",
    "code": "ad",
    "phone_code": "376"
  },
  {
    "name": "איחוד האמירויות הערביות",
    "english_name": "United Arab Emirates (UAE)",
    "code": "ae",
    "phone_code": "971"
  },
  {
    "name": "אפגניסטן",
    "english_name": "Afghanistan",
    "code": "af",
    "phone_code": "93"
  },
  {
    "name": "אנטיגואה וברבודה",
    "english_name": "Antigua and Barbuda",
    "code": "ag",
    "phone_code": "1"
  },
  {
    "name": "אנגווילה",
    "english_name": "Anguilla",
    "code": "ai",
    "phone_code": "1"
  },
  {
    "name": "אלבניה",
    "english_name": "Albania",
    "code": "al",
    "phone_code": "355"
  },
  {
    "name": "ארמניה",
    "english_name": "Armenia",
    "code": "am",
    "phone_code": "374"
  },
  {
    "name": "אנגולה",
    "english_name": "Angola",
    "code": "ao",
    "phone_code": "244"
  },
  {
    "name": "אנטארקטיקה",
    "english_name": "Antarctica",
    "code": "aq",
    "phone_code": "672"
  },
  {
    "name": "ארגנטינה",
    "english_name": "Argentina",
    "code": "ar",
    "phone_code": "54"
  },
  {
    "name": "סמואה האמריקנית",
    "english_name": "American Samoa",
    "code": "as",
    "phone_code": "1"
  },
  {
    "name": "אוסטריה",
    "english_name": "Austria",
    "code": "at",
    "phone_code": "43"
  },
  {
    "name": "אוסטרליה",
    "english_name": "Australia",
    "code": "au",
    "phone_code": "61"
  },
  {
    "name": "ארובה",
    "english_name": "Aruba",
    "code": "aw",
    "phone_code": "297"
  },
  {
    "name": "איי אלנד",
    "english_name": "Åland Islands",
    "code": "ax",
    "phone_code": "358"
  },
  {
    "name": "אזרבייג׳ן",
    "english_name": "Azerbaijan",
    "code": "az",
    "phone_code": "994"
  },
  {
    "name": "בוסניה והרצגובינה",
    "english_name": "Bosnia And Herzegovina",
    "code": "ba",
    "phone_code": "387"
  },
  {
    "name": "ברבדוס",
    "english_name": "Barbados",
    "code": "bb",
    "phone_code": "1"
  },
  {
    "name": "בנגלדש",
    "english_name": "Bangladesh",
    "code": "bd",
    "phone_code": "880"
  },
  {
    "name": "בלגיה",
    "english_name": "Belgium",
    "code": "be",
    "phone_code": "32"
  },
  {
    "name": "בורקינה פאסו",
    "english_name": "Burkina Faso",
    "code": "bf",
    "phone_code": "226"
  },
  {
    "name": "בולגריה",
    "english_name": "Bulgaria",
    "code": "bg",
    "phone_code": "359"
  },
  {
    "name": "בחריין",
    "english_name": "Bahrain",
    "code": "bh",
    "phone_code": "973"
  },
  {
    "name": "בורונדי",
    "english_name": "Burundi",
    "code": "bi",
    "phone_code": "257"
  },
  {
    "name": "בנין",
    "english_name": "Benin",
    "code": "bj",
    "phone_code": "229"
  },
  {
    "name": "סנט ברתולומיאו",
    "english_name": "Saint Barthélemy",
    "code": "bl",
    "phone_code": "590"
  },
  {
    "name": "ברמודה",
    "english_name": "Bermuda",
    "code": "bm",
    "phone_code": "1"
  },
  {
    "name": "ברוניי",
    "english_name": "Brunei Darussalam",
    "code": "bn",
    "phone_code": "673"
  },
  {
    "name": "בוליביה",
    "english_name": "Bolivia, Plurinational State Of",
    "code": "bo",
    "phone_code": "591"
  },
  {
    "name": "ברזיל",
    "english_name": "Brazil",
    "code": "br",
    "phone_code": "55"
  },
  {
    "name": "איי בהאמה",
    "english_name": "Bahamas",
    "code": "bs",
    "phone_code": "1"
  },
  {
    "name": "בהוטן",
    "english_name": "Bhutan",
    "code": "bt",
    "phone_code": "975"
  },
  {
    "name": "בוטסואנה",
    "english_name": "Botswana",
    "code": "bw",
    "phone_code": "267"
  },
  {
    "name": "בלארוס",
    "english_name": "Belarus",
    "code": "by",
    "phone_code": "375"
  },
  {
    "name": "בליז",
    "english_name": "Belize",
    "code": "bz",
    "phone_code": "501"
  },
  {
    "name": "קנדה",
    "english_name": "Canada",
    "code": "ca",
    "phone_code": "1"
  },
  {
    "name": "איי קוקוס",
    "english_name": "Cocos (keeling) Islands",
    "code": "cc",
    "phone_code": "61"
  },
  {
    "name": "הרפובליקה הדמוקרטית של קונגו",
    "english_name": "Congo, The Democratic Republic Of The",
    "code": "cd",
    "phone_code": "243"
  },
  {
    "name": "הרפובליקה המרכז-אפריקאית",
    "english_name": "Central African Republic",
    "code": "cf",
    "phone_code": "236"
  },
  {
    "name": "הרפובליקה של קונגו",
    "english_name": "Congo",
    "code": "cg",
    "phone_code": "242"
  },
  {
    "name": "שווייץ",
    "english_name": "Switzerland",
    "code": "ch",
    "phone_code": "41"
  },
  {
    "name": "חוף השנהב",
    "english_name": "Côte D'ivoire",
    "code": "ci",
    "phone_code": "225"
  },
  {
    "name": "איי קוק",
    "english_name": "Cook Islands",
    "code": "ck",
    "phone_code": "682"
  },
  {
    "name": "צ׳ילה",
    "english_name": "Chile",
    "code": "cl",
    "phone_code": "56"
  },
  {
    "name": "קמרון",
    "english_name": "Cameroon",
    "code": "cm",
    "phone_code": "237"
  },
  {
    "name": "סין",
    "english_name": "China",
    "code": "cn",
    "phone_code": "86"
  },
  {
    "name": "קולומביה",
    "english_name": "Colombia",
    "code": "co",
    "phone_code": "57"
  },
  {
    "name": "קוסטה ריקה",
    "english_name": "Costa Rica",
    "code": "cr",
    "phone_code": "506"
  },
  {
    "name": "קובה",
    "english_name": "Cuba",
    "code": "cu",
    "phone_code": "53"
  },
  {
    "name": "כף ורדה",
    "english_name": "Cape Verde",
    "code": "cv",
    "phone_code": "238"
  },
  {
    "name": "קוראסאו",
    "english_name": "Curaçao",
    "code": "cw",
    "phone_code": "599"
  },
  {
    "name": "אי חג המולד",
    "english_name": "Christmas Island",
    "code": "cx",
    "phone_code": "61"
  },
  {
    "name": "קפריסין",
    "english_name": "Cyprus",
    "code": "cy",
    "phone_code": "357"
  },
  {
    "name": "צ׳כיה",
    "english_name": "Czech Republic",
    "code": "cz",
    "phone_code": "420"
  },
  {
    "name": "גרמניה",
    "english_name": "Germany",
    "code": "de",
    "phone_code": "49"
  },
  {
    "name": "ג׳יבוטי",
    "english_name": "Djibouti",
    "code": "dj",
    "phone_code": "253"
  },
  {
    "name": "דנמרק",
    "english_name": "Denmark",
    "code": "dk",
    "phone_code": "45"
  },
  {
    "name": "דומיניקה",
    "english_name": "Dominica",
    "code": "dm",
    "phone_code": "1"
  },
  {
    "name": "הרפובליקה הדומיניקנית",
    "english_name": "Dominican Republic",
    "code": "do",
    "phone_code": "1"
  },
  {
    "name": "אלג’יריה",
    "english_name": "Algeria",
    "code": "dz",
    "phone_code": "213"
  },
  {
    "name": "אקוודור",
    "english_name": "Ecuador",
    "code": "ec",
    "phone_code": "593"
  },
  {
    "name": "אסטוניה",
    "english_name": "Estonia",
    "code": "ee",
    "phone_code": "372"
  },
  {
    "name": "מצרים",
    "english_name": "Egypt",
    "code": "eg",
    "phone_code": "20"
  },
  {
    "name": "אריתריאה",
    "english_name": "Eritrea",
    "code": "er",
    "phone_code": "291"
  },
  {
    "name": "ספרד",
    "english_name": "Spain",
    "code": "es",
    "phone_code": "34"
  },
  {
    "name": "אתיופיה",
    "english_name": "Ethiopia",
    "code": "et",
    "phone_code": "251"
  },
  {
    "name": "פינלנד",
    "english_name": "Finland",
    "code": "fi",
    "phone_code": "358"
  },
  {
    "name": "פיג׳י",
    "english_name": "Fiji",
    "code": "fj",
    "phone_code": "679"
  },
  {
    "name": "איי פוקלנד",
    "english_name": "Falkland Islands (malvinas)",
    "code": "fk",
    "phone_code": "500"
  },
  {
    "name": "מיקרונזיה",
    "english_name": "Micronesia, Federated States Of",
    "code": "fm",
    "phone_code": "691"
  },
  {
    "name": "איי פרו",
    "english_name": "Faroe Islands",
    "code": "fo",
    "phone_code": "298"
  },
  {
    "name": "צרפת",
    "english_name": "France",
    "code": "fr",
    "phone_code": "33"
  },
  {
    "name": "גבון",
    "english_name": "Gabon",
    "code": "ga",
    "phone_code": "241"
  },
  {
    "name": "הממלכה המאוחדת",
    "english_name": "United Kingdom",
    "code": "gb",
    "phone_code": "44"
  },
  {
    "name": "גרנדה",
    "english_name": "Grenada",
    "code": "gd",
    "phone_code": "1"
  },
  {
    "name": "גאורגיה",
    "english_name": "Georgia",
    "code": "ge",
    "phone_code": "995"
  },
  {
    "name": "גיאנה הצרפתית",
    "english_name": "French Guyana",
    "code": "gf",
    "phone_code": "594"
  },
  {
    "name": "גרנזי",
    "english_name": "Guernsey",
    "code": "gg",
    "phone_code": "44"
  },
  {
    "name": "גאנה",
    "english_name": "Ghana",
    "code": "gh",
    "phone_code": "233"
  },
  {
    "name": "גיברלטר",
    "english_name": "Gibraltar",
    "code": "gi",
    "phone_code": "350"
  },
  {
    "name": "גרינלנד",
    "english_name": "Greenland",
    "code": "gl",
    "phone_code": "299"
  },
  {
    "name": "גמביה",
    "english_name": "Gambia",
    "code": "gm",
    "phone_code": "220"
  },
  {
    "name": "גינאה",
    "english_name": "Guinea",
    "code": "gn",
    "phone_code": "224"
  },
  {
    "name": "גוואדלופ",
    "english_name": "Guadeloupe",
    "code": "gp",
    "phone_code": "590"
  },
  {
    "name": "ינאה המשוונית",
    "english_name": "Equatorial Guinea",
    "code": "gq",
    "phone_code": "240"
  },
  {
    "name": "יון",
    "english_name": "Greece",
    "code": "gr",
    "phone_code": "30"
  },
  {
    "name": "גואטמלה",
    "english_name": "Guatemala",
    "code": "gt",
    "phone_code": "502"
  },
  {
    "name": "גואם",
    "english_name": "Guam",
    "code": "gu",
    "phone_code": "1"
  },
  {
    "name": "גינאה ביסאו",
    "english_name": "Guinea-bissau",
    "code": "gw",
    "phone_code": "245"
  },
  {
    "name": "גיאנה",
    "english_name": "Guyana",
    "code": "gy",
    "phone_code": "592"
  },
  {
    "name": "הונג קונג",
    "english_name": "Hong Kong",
    "code": "hk",
    "phone_code": "852"
  },
  {
    "name": "הונדורס",
    "english_name": "Honduras",
    "code": "hn",
    "phone_code": "504"
  },
  {
    "name": "קרואטיה",
    "english_name": "Croatia",
    "code": "hr",
    "phone_code": "385"
  },
  {
    "name": "האיטי",
    "english_name": "Haiti",
    "code": "ht",
    "phone_code": "509"
  },
  {
    "name": "הונגריה",
    "english_name": "Hungary",
    "code": "hu",
    "phone_code": "36"
  },
  {
    "name": "אינדונזיה",
    "english_name": "Indonesia",
    "code": "id",
    "phone_code": "62"
  },
  {
    "name": "אירלנד",
    "english_name": "Ireland",
    "code": "ie",
    "phone_code": "353"
  },
  {
    "name": "ישראל",
    "english_name": "Israel",
    "code": "il",
    "phone_code": "972"
  },
  {
    "name": "האי מאן",
    "english_name": "Isle Of Man",
    "code": "im",
    "phone_code": "44"
  },
  {
    "name": "אִיסלַנד",
    "english_name": "Iceland",
    "code": "is",
    "phone_code": "354"
  },
  {
    "name": "הודו",
    "english_name": "India",
    "code": "in",
    "phone_code": "91"
  },
  {
    "name": "הטריטוריה הבריטית באוקיינוס ההודי",
    "english_name": "British Indian Ocean Territory",
    "code": "io",
    "phone_code": "246"
  },
  {
    "name": "עיראק",
    "english_name": "Iraq",
    "code": "iq",
    "phone_code": "964"
  },
  {
    "name": "איראן",
    "english_name": "Iran, Islamic Republic Of",
    "code": "ir",
    "phone_code": "98"
  },
  {
    "name": "איטליה",
    "english_name": "Italy",
    "code": "it",
    "phone_code": "39"
  },
  {
    "name": "ג'רזי",
    "english_name": "Jersey",
    "code": "je",
    "phone_code": "44"
  },
  {
    "name": "ג'מייקה",
    "english_name": "Jamaica",
    "code": "jm",
    "phone_code": "1"
  },
  {
    "name": "ירדן",
    "english_name": "Jordan",
    "code": "jo",
    "phone_code": "962"
  },
  {
    "name": "יפן",
    "english_name": "Japan",
    "code": "jp",
    "phone_code": "81"
  },
  {
    "name": "קניה",
    "english_name": "Kenya",
    "code": "ke",
    "phone_code": "254"
  },
  {
    "name": "קירגיזסטן",
    "english_name": "Kyrgyzstan",
    "code": "kg",
    "phone_code": "996"
  },
  {
    "name": "קמבודיה",
    "english_name": "Cambodia",
    "code": "kh",
    "phone_code": "855"
  },
  {
    "name": "קיריבטי",
    "english_name": "Kiribati",
    "code": "ki",
    "phone_code": "686"
  },
  {
    "name": "קומורו",
    "english_name": "Comoros",
    "code": "km",
    "phone_code": "269"
  },
  {
    "name": "סנט קיטס ונוויס",
    "english_name": "Saint Kitts and Nevis",
    "code": "kn",
    "phone_code": "1"
  },
  {
    "name": "קוריאה הצפונית",
    "english_name": "North Korea",
    "code": "kp",
    "phone_code": "850"
  },
  {
    "name": "קוריאה הדרומית",
    "english_name": "South Korea",
    "code": "kr",
    "phone_code": "82"
  },
  {
    "name": "כווית",
    "english_name": "Kuwait",
    "code": "kw",
    "phone_code": "965"
  },
  {
    "name": "איי קיימן",
    "english_name": "Cayman Islands",
    "code": "ky",
    "phone_code": "1"
  },
  {
    "name": "קזחסטן",
    "english_name": "Kazakhstan",
    "code": "kz",
    "phone_code": "7"
  },
  {
    "name": "לאוס",
    "english_name": "Lao People's Democratic Republic",
    "code": "la",
    "phone_code": "856"
  },
  {
    "name": "לבנון",
    "english_name": "Lebanon",
    "code": "lb",
    "phone_code": "961"
  },
  {
    "name": "סנט לוסיה",
    "english_name": "Saint Lucia",
    "code": "lc",
    "phone_code": "1"
  },
  {
    "name": "ליכטנשטיין",
    "english_name": "Liechtenstein",
    "code": "li",
    "phone_code": "423"
  },
  {
    "name": "סרי לנקה",
    "english_name": "Sri Lanka",
    "code": "lk",
    "phone_code": "94"
  },
  {
    "name": "ליבריה",
    "english_name": "Liberia",
    "code": "lr",
    "phone_code": "231"
  },
  {
    "name": "לסוטו",
    "english_name": "Lesotho",
    "code": "ls",
    "phone_code": "266"
  },
  {
    "name": "ליטא",
    "english_name": "Lithuania",
    "code": "lt",
    "phone_code": "370"
  },
  {
    "name": "לוקסמבורג",
    "english_name": "Luxembourg",
    "code": "lu",
    "phone_code": "352"
  },
  {
    "name": "לטביה",
    "english_name": "Latvia",
    "code": "lv",
    "phone_code": "371"
  },
  {
    "name": "לוב",
    "english_name": "Libya",
    "code": "ly",
    "phone_code": "218"
  },
  {
    "name": "מרוקו",
    "english_name": "Morocco",
    "code": "ma",
    "phone_code": "212"
  },
  {
    "name": "מונאקו",
    "english_name": "Monaco",
    "code": "mc",
    "phone_code": "377"
  },
  {
    "name": "מולדובה",
    "english_name": "Moldova, Republic Of",
    "code": "md",
    "phone_code": "373"
  },
  {
    "name": "מונטנגרו",
    "english_name": "Montenegro",
    "code": "me",
    "phone_code": "382"
  },
  {
    "name": "מרטין הקדוש",
    "english_name": "Saint Martin",
    "code": "mf",
    "phone_code": "590"
  },
  {
    "name": "מדגסקר",
    "english_name": "Madagascar",
    "code": "mg",
    "phone_code": "261"
  },
  {
    "name": "איי מרשל",
    "english_name": "Marshall Islands",
    "code": "mh",
    "phone_code": "692"
  },
  {
    "name": "מקדוניה",
    "english_name": "Macedonia (FYROM)",
    "code": "mk",
    "phone_code": "389"
  },
  {
    "name": "מאלי",
    "english_name": "Mali",
    "code": "ml",
    "phone_code": "223"
  },
  {
    "name": "מיאנמר",
    "english_name": "Myanmar",
    "code": "mm",
    "phone_code": "95"
  },
  {
    "name": "מונגוליה",
    "english_name": "Mongolia",
    "code": "mn",
    "phone_code": "976"
  },
  {
    "name": "מקאו",
    "english_name": "Macau",
    "code": "mo",
    "phone_code": "853"
  },
  {
    "name": "איי מריאנה הצפוניים",
    "english_name": "Northern Mariana Islands",
    "code": "mp",
    "phone_code": "1"
  },
  {
    "name": "מרטיניק",
    "english_name": "Martinique",
    "code": "mq",
    "phone_code": "596"
  },
  {
    "name": "מאוריטניה",
    "english_name": "Mauritania",
    "code": "mr",
    "phone_code": "222"
  },
  {
    "name": "מונטסראט",
    "english_name": "Montserrat",
    "code": "ms",
    "phone_code": "1"
  },
  {
    "name": "מלטה",
    "english_name": "Malta",
    "code": "mt",
    "phone_code": "356"
  },
  {
    "name": "מאוריציוס",
    "english_name": "Mauritius",
    "code": "mu",
    "phone_code": "230"
  },
  {
    "name": "האיים המלדיביים",
    "english_name": "Maldives",
    "code": "mv",
    "phone_code": "960"
  },
  {
    "name": "מלאווי",
    "english_name": "Malawi",
    "code": "mw",
    "phone_code": "265"
  },
  {
    "name": "מקסיקו",
    "english_name": "Mexico",
    "code": "mx",
    "phone_code": "52"
  },
  {
    "name": "מלזיה",
    "english_name": "Malaysia",
    "code": "my",
    "phone_code": "60"
  },
  {
    "name": "מוזמביק",
    "english_name": "Mozambique",
    "code": "mz",
    "phone_code": "258"
  },
  {
    "name": "נמיביה",
    "english_name": "Namibia",
    "code": "na",
    "phone_code": "264"
  },
  {
    "name": "קלדוניה החדשה",
    "english_name": "New Caledonia",
    "code": "nc",
    "phone_code": "687"
  },
  {
    "name": "ניז׳ר",
    "english_name": "Niger",
    "code": "ne",
    "phone_code": "227"
  },
  {
    "name": "איי נורפולק",
    "english_name": "Norfolk Islands",
    "code": "nf",
    "phone_code": "672"
  },
  {
    "name": "ניגריה",
    "english_name": "Nigeria",
    "code": "ng",
    "phone_code": "234"
  },
  {
    "name": "ניקרגואה",
    "english_name": "Nicaragua",
    "code": "ni",
    "phone_code": "505"
  },
  {
    "name": "הולנד",
    "english_name": "Netherlands",
    "code": "nl",
    "phone_code": "31"
  },
  {
    "name": "נורבגיה",
    "english_name": "Norway",
    "code": "no",
    "phone_code": "47"
  },
  {
    "name": "נפאל",
    "english_name": "Nepal",
    "code": "np",
    "phone_code": "977"
  },
  {
    "name": "נאורו",
    "english_name": "Nauru",
    "code": "nr",
    "phone_code": "674"
  },
  {
    "name": "ניואה",
    "english_name": "Niue",
    "code": "nu",
    "phone_code": "683"
  },
  {
    "name": "ניו זילנד",
    "english_name": "New Zealand",
    "code": "nz",
    "phone_code": "64"
  },
  {
    "name": "עומאן",
    "english_name": "Oman",
    "code": "om",
    "phone_code": "968"
  },
  {
    "name": "פנמה",
    "english_name": "Panama",
    "code": "pa",
    "phone_code": "507"
  },
  {
    "name": "פרו",
    "english_name": "Peru",
    "code": "pe",
    "phone_code": "51"
  },
  {
    "name": "פולינזיה",
    "english_name": "French Polynesia",
    "code": "pf",
    "phone_code": "689"
  },
  {
    "name": "פפואה גינאה החדשה",
    "english_name": "Papua New Guinea",
    "code": "pg",
    "phone_code": "675"
  },
  {
    "name": "הפיליפינים",
    "english_name": "Philippines",
    "code": "ph",
    "phone_code": "63"
  },
  {
    "name": "פקיסטן",
    "english_name": "Pakistan",
    "code": "pk",
    "phone_code": "92"
  },
  {
    "name": "פולין",
    "english_name": "Poland",
    "code": "pl",
    "phone_code": "48"
  },
  {
    "name": "סנט פייר ומיקלון",
    "english_name": "Saint Pierre And Miquelon",
    "code": "pm",
    "phone_code": "508"
  },
  {
    "name": "איי פיטקרן",
    "english_name": "Pitcairn Islands",
    "code": "pn",
    "phone_code": "870"
  },
  {
    "name": "פוארטו ריקו",
    "english_name": "Puerto Rico",
    "code": "pr",
    "phone_code": "1"
  },
  {
    "name": "פלשתינה",
    "english_name": "Palestine",
    "code": "ps",
    "phone_code": "970"
  },
  {
    "name": "פורטוגל",
    "english_name": "Portugal",
    "code": "pt",
    "phone_code": "351"
  },
  {
    "name": "פלאו",
    "english_name": "Palau",
    "code": "pw",
    "phone_code": "680"
  },
  {
    "name": "פרגוואי",
    "english_name": "Paraguay",
    "code": "py",
    "phone_code": "595"
  },
  {
    "name": "קטאר",
    "english_name": "Qatar",
    "code": "qa",
    "phone_code": "974"
  },
  {
    "name": "ראוניון",
    "english_name": "Réunion",
    "code": "re",
    "phone_code": "262"
  },
  {
    "name": "רומניה",
    "english_name": "Romania",
    "code": "ro",
    "phone_code": "40"
  },
  {
    "name": "סרביה",
    "english_name": "Serbia",
    "code": "rs",
    "phone_code": "381"
  },
  {
    "name": "רוסיה",
    "english_name": "Russian Federation",
    "code": "ru",
    "phone_code": "7"
  },
  {
    "name": "רואנדה",
    "english_name": "Rwanda",
    "code": "rw",
    "phone_code": "250"
  },
  {
    "name": "ערב הסעודית",
    "english_name": "Saudi Arabia",
    "code": "sa",
    "phone_code": "966"
  },
  {
    "name": "איי שלמה",
    "english_name": "Solomon Islands",
    "code": "sb",
    "phone_code": "677"
  },
  {
    "name": "סיישל",
    "english_name": "Seychelles",
    "code": "sc",
    "phone_code": "248"
  },
  {
    "name": "סודאן",
    "english_name": "Sudan",
    "code": "sd",
    "phone_code": "249"
  },
  {
    "name": "שבדיה",
    "english_name": "Sweden",
    "code": "se",
    "phone_code": "46"
  },
  {
    "name": "סינגפור",
    "english_name": "Singapore",
    "code": "sg",
    "phone_code": "65"
  },
  {
    "name": "סנט הלנה, אסנשן וטריסטן דה קונה",
    "english_name": "Saint Helena, Ascension And Tristan Da Cunha",
    "code": "sh",
    "phone_code": "290"
  },
  {
    "name": "סלובניה",
    "english_name": "Slovenia",
    "code": "si",
    "phone_code": "386"
  },
  {
    "name": "סלובקיה",
    "english_name": "Slovakia",
    "code": "sk",
    "phone_code": "421"
  },
  {
    "name": "סיירה לאונה",
    "english_name": "Sierra Leone",
    "code": "sl",
    "phone_code": "232"
  },
  {
    "name": "סן מרינו",
    "english_name": "San Marino",
    "code": "sm",
    "phone_code": "378"
  },
  {
    "name": "סנגל",
    "english_name": "Senegal",
    "code": "sn",
    "phone_code": "221"
  },
  {
    "name": "סומליה",
    "english_name": "Somalia",
    "code": "so",
    "phone_code": "252"
  },
  {
    "name": "סורינאם",
    "english_name": "Suriname",
    "code": "sr",
    "phone_code": "597"
  },
  {
    "name": "דרום סודן",
    "english_name": "South Sudan",
    "code": "ss",
    "phone_code": "211"
  },
  {
    "name": "סאו טומה ופרינסיפה",
    "english_name": "Sao Tome And Principe",
    "code": "st",
    "phone_code": "239"
  },
  {
    "name": "אל סלוודור",
    "english_name": "El Salvador",
    "code": "sv",
    "phone_code": "503"
  },
  {
    "name": "סאנט מארטן",
    "english_name": "Sint Maarten",
    "code": "sx",
    "phone_code": "1"
  },
  {
    "name": "סוריה",
    "english_name": "Syrian Arab Republic",
    "code": "sy",
    "phone_code": "963"
  },
  {
    "name": "סווזילנד",
    "english_name": "Swaziland",
    "code": "sz",
    "phone_code": "268"
  },
  {
    "name": "איי טורקס וקאיקוס",
    "english_name": "Turks and Caicos Islands",
    "code": "tc",
    "phone_code": "1"
  },
  {
    "name": "צ׳אד",
    "english_name": "Chad",
    "code": "td",
    "phone_code": "235"
  },
  {
    "name": "טוגו",
    "english_name": "Togo",
    "code": "tg",
    "phone_code": "228"
  },
  {
    "name": "תאילנד",
    "english_name": "Thailand",
    "code": "th",
    "phone_code": "66"
  },
  {
    "name": "טג׳יקיסטן",
    "english_name": "Tajikistan",
    "code": "tj",
    "phone_code": "992"
  },
  {
    "name": "טוקלאו",
    "english_name": "Tokelau",
    "code": "tk",
    "phone_code": "690"
  },
  {
    "name": "מזרח טימור",
    "english_name": "Timor-leste",
    "code": "tl",
    "phone_code": "670"
  },
  {
    "name": "טורקמניסטן",
    "english_name": "Turkmenistan",
    "code": "tm",
    "phone_code": "993"
  },
  {
    "name": "תוניסיה",
    "english_name": "Tunisia",
    "code": "tn",
    "phone_code": "216"
  },
  {
    "name": "טונגה",
    "english_name": "Tonga",
    "code": "to",
    "phone_code": "676"
  },
  {
    "name": "טורקיה",
    "english_name": "Turkey",
    "code": "tr",
    "phone_code": "90"
  },
  {
    "name": "טרינידד וטובגו",
    "english_name": "Trinidad & Tobago",
    "code": "tt",
    "phone_code": "1"
  },
  {
    "name": "טובאלו",
    "english_name": "Tuvalu",
    "code": "tv",
    "phone_code": "688"
  },
  {
    "name": "טייוואן",
    "english_name": "Taiwan",
    "code": "tw",
    "phone_code": "886"
  },
  {
    "name": "טנזניה",
    "english_name": "Tanzania, United Republic Of",
    "code": "tz",
    "phone_code": "255"
  },
  {
    "name": "אוקראינה",
    "english_name": "Ukraine",
    "code": "ua",
    "phone_code": "380"
  },
  {
    "name": "אוגנדה",
    "english_name": "Uganda",
    "code": "ug",
    "phone_code": "256"
  },
  {
    "name": "ארצות הברית",
    "english_name": "United States (USA)",
    "code": "us",
    "phone_code": "1"
  },
  {
    "name": "אורוגוואי",
    "english_name": "Uruguay",
    "code": "uy",
    "phone_code": "598"
  },
  {
    "name": "אוזבקיסטן",
    "english_name": "Uzbekistan",
    "code": "uz",
    "phone_code": "998"
  },
  {
    "name": "עיר הותיקן",
    "english_name": "Holy See (vatican City State)",
    "code": "va",
    "phone_code": "379"
  },
  {
    "name": "סנט וינסנט והגרנדינים",
    "english_name": "Saint Vincent & The Grenadines",
    "code": "vc",
    "phone_code": "1"
  },
  {
    "name": "ונצואלה",
    "english_name": "Venezuela, Bolivarian Republic Of",
    "code": "ve",
    "phone_code": "58"
  },
  {
    "name": "איי בתולה בריטיים",
    "english_name": "British Virgin Islands",
    "code": "vg",
    "phone_code": "1"
  },
  {
    "name": "איי הבתולה של ארה\"ב",
    "english_name": "US Virgin Islands",
    "code": "vi",
    "phone_code": "1"
  },
  {
    "name": "וייטנאם",
    "english_name": "Vietnam",
    "code": "vn",
    "phone_code": "84"
  },
  {
    "name": "ונואטו",
    "english_name": "Vanuatu",
    "code": "vu",
    "phone_code": "678"
  },
  {
    "name": "ואליס ופוטונה",
    "english_name": "Wallis And Futuna",
    "code": "wf",
    "phone_code": "681"
  },
  {
    "name": "סמואה",
    "english_name": "Samoa",
    "code": "ws",
    "phone_code": "685"
  },
  {
    "name": "קוסובו",
    "english_name": "Kosovo",
    "code": "xk",
    "phone_code": "383"
  },
  {
    "name": "תימן",
    "english_name": "Yemen",
    "code": "ye",
    "phone_code": "967"
  },
  {
    "name": "מיוט",
    "english_name": "Mayotte",
    "code": "yt",
    "phone_code": "262"
  },
  {
    "name": "דרום אפריקה",
    "english_name": "South Africa",
    "code": "za",
    "phone_code": "27"
  },
  {
    "name": "זמביה",
    "english_name": "Zambia",
    "code": "zm",
    "phone_code": "260"
  },
  {
    "name": "זימבבואה",
    "english_name": "Zimbabwe",
    "code": "zw",
    "phone_code": "263"
  }
]

